CCSDS_OMM_VERS = 2.0
CREATION_DATE  = 
ORIGINATOR     = 

OBJECT_NAME    = STARLINK-35463
OBJECT_ID      = 2025-262H
CENTER_NAME    = EARTH
REF_FRAME      = TEME
TIME_SYSTEM    = UTC
MEAN_ELEMENT_THEORY = SGP/SGP4

EPOCH          = 2025-12-09T20:00:01.999008
MEAN_MOTION    = 15.44379630
ECCENTRICITY   = .0001239
INCLINATION    = 43.0004
RA_OF_ASC_NODE = 88.1279
ARG_OF_PERICENTER = 273.2705
MEAN_ANOMALY   = 32.5320

EPHEMERIS_TYPE = 0
CLASSIFICATION_TYPE = U
NORAD_CAT_ID   = 66463
ELEMENT_SET_NO = 999
REV_AT_EPOCH   = 517
BSTAR          = -.48149E-1
MEAN_MOTION_DOT = -.202606E-1
MEAN_MOTION_DDOT = 0

CCSDS_OMM_VERS = 2.0
CREATION_DATE  = 
ORIGINATOR     = 

OBJECT_NAME    = STARLINK-35435
OBJECT_ID      = 2025-262J
CENTER_NAME    = EARTH
REF_FRAME      = TEME
TIME_SYSTEM    = UTC
MEAN_ELEMENT_THEORY = SGP/SGP4

EPOCH          = 2025-12-09T20:00:01.999008
MEAN_MOTION    = 15.43041911
ECCENTRICITY   = .0001377
INCLINATION    = 42.9999
RA_OF_ASC_NODE = 88.1504
ARG_OF_PERICENTER = 278.3728
MEAN_ANOMALY   = 18.2069

EPHEMERIS_TYPE = 0
CLASSIFICATION_TYPE = U
NORAD_CAT_ID   = 66464
ELEMENT_SET_NO = 999
REV_AT_EPOCH   = 517
BSTAR          = -.49407E-1
MEAN_MOTION_DOT = -.1990405E-1
MEAN_MOTION_DDOT = 0

CCSDS_OMM_VERS = 2.0
CREATION_DATE  = 
ORIGINATOR     = 

OBJECT_NAME    = STARLINK-35448
OBJECT_ID      = 2025-262K
CENTER_NAME    = EARTH
REF_FRAME      = TEME
TIME_SYSTEM    = UTC
MEAN_ELEMENT_THEORY = SGP/SGP4

EPOCH          = 2025-12-09T20:00:01.999008
MEAN_MOTION    = 15.47062310
ECCENTRICITY   = .0001612
INCLINATION    = 43.0005
RA_OF_ASC_NODE = 88.0927
ARG_OF_PERICENTER = 273.5218
MEAN_ANOMALY   = 46.4593

EPHEMERIS_TYPE = 0
CLASSIFICATION_TYPE = U
NORAD_CAT_ID   = 66465
ELEMENT_SET_NO = 999
REV_AT_EPOCH   = 517
BSTAR          = -.44791E-1
MEAN_MOTION_DOT = -.2064144E-1
MEAN_MOTION_DDOT = 0

CCSDS_OMM_VERS = 2.0
CREATION_DATE  = 
ORIGINATOR     = 

OBJECT_NAME    = STARLINK-35388
OBJECT_ID      = 2025-262L
CENTER_NAME    = EARTH
REF_FRAME      = TEME
TIME_SYSTEM    = UTC
MEAN_ELEMENT_THEORY = SGP/SGP4

EPOCH          = 2025-12-09T17:03:21.919104
MEAN_MOTION    = 15.49524620
ECCENTRICITY   = .0002771
INCLINATION    = 43.0010
RA_OF_ASC_NODE = 88.7937
ARG_OF_PERICENTER = 285.4527
MEAN_ANOMALY   = 74.6026

EPHEMERIS_TYPE = 0
CLASSIFICATION_TYPE = U
NORAD_CAT_ID   = 66466
ELEMENT_SET_NO = 999
REV_AT_EPOCH   = 509
BSTAR          = -.46698E-2
MEAN_MOTION_DOT = -.25583E-2
MEAN_MOTION_DDOT = 0

CCSDS_OMM_VERS = 2.0
CREATION_DATE  = 
ORIGINATOR     = 

OBJECT_NAME    = STARLINK-35682
OBJECT_ID      = 2025-262M
CENTER_NAME    = EARTH
REF_FRAME      = TEME
TIME_SYSTEM    = UTC
MEAN_ELEMENT_THEORY = SGP/SGP4

EPOCH          = 2025-12-09T20:00:01.999008
MEAN_MOTION    = 15.45730090
ECCENTRICITY   = .0001659
INCLINATION    = 43.0005
RA_OF_ASC_NODE = 88.1077
ARG_OF_PERICENTER = 279.9345
MEAN_ANOMALY   = 33.6645

EPHEMERIS_TYPE = 0
CLASSIFICATION_TYPE = U
NORAD_CAT_ID   = 66467
ELEMENT_SET_NO = 999
REV_AT_EPOCH   = 517
BSTAR          = -.46871E-1
MEAN_MOTION_DOT = -.2062227E-1
MEAN_MOTION_DDOT = 0

CCSDS_OMM_VERS = 2.0
CREATION_DATE  = 
ORIGINATOR     = 

OBJECT_NAME    = STARLINK-35331
OBJECT_ID      = 2025-262N
CENTER_NAME    = EARTH
REF_FRAME      = TEME
TIME_SYSTEM    = UTC
MEAN_ELEMENT_THEORY = SGP/SGP4

EPOCH          = 2025-12-09T18:35:23.866656
MEAN_MOTION    = 15.50297909
ECCENTRICITY   = .000105
INCLINATION    = 43.0010
RA_OF_ASC_NODE = 88.4141
ARG_OF_PERICENTER = 308.1089
MEAN_ANOMALY   = 51.9676

EPHEMERIS_TYPE = 0
CLASSIFICATION_TYPE = U
NORAD_CAT_ID   = 66468
ELEMENT_SET_NO = 999
REV_AT_EPOCH   = 510
BSTAR          = -.22109E-2
MEAN_MOTION_DOT = -.126691E-2
MEAN_MOTION_DDOT = 0

CCSDS_OMM_VERS = 2.0
CREATION_DATE  = 
ORIGINATOR     = 

OBJECT_NAME    = STARLINK-35451
OBJECT_ID      = 2025-262P
CENTER_NAME    = EARTH
REF_FRAME      = TEME
TIME_SYSTEM    = UTC
MEAN_ELEMENT_THEORY = SGP/SGP4

EPOCH          = 2025-12-09T18:33:51.234624
MEAN_MOTION    = 15.50611570
ECCENTRICITY   = .0001521
INCLINATION    = 43.0007
RA_OF_ASC_NODE = 88.4040
ARG_OF_PERICENTER = 271.2414
MEAN_ANOMALY   = 88.8272

EPHEMERIS_TYPE = 0
CLASSIFICATION_TYPE = U
NORAD_CAT_ID   = 66469
ELEMENT_SET_NO = 999
REV_AT_EPOCH   = 510
BSTAR          = .1822E-2
MEAN_MOTION_DOT = .108163E-2
MEAN_MOTION_DDOT = 0

CCSDS_OMM_VERS = 2.0
CREATION_DATE  = 
ORIGINATOR     = 

OBJECT_NAME    = STARLINK-35655
OBJECT_ID      = 2025-262Q
CENTER_NAME    = EARTH
REF_FRAME      = TEME
TIME_SYSTEM    = UTC
MEAN_ELEMENT_THEORY = SGP/SGP4

EPOCH          = 2025-12-09T18:34:50.587104
MEAN_MOTION    = 15.50615897
ECCENTRICITY   = .0001461
INCLINATION    = 43.0002
RA_OF_ASC_NODE = 88.4105
ARG_OF_PERICENTER = 271.1122
MEAN_ANOMALY   = 88.9571

EPHEMERIS_TYPE = 0
CLASSIFICATION_TYPE = U
NORAD_CAT_ID   = 66470
ELEMENT_SET_NO = 999
REV_AT_EPOCH   = 510
BSTAR          = .23527E-2
MEAN_MOTION_DOT = .140366E-2
MEAN_MOTION_DDOT = 0

CCSDS_OMM_VERS = 2.0
CREATION_DATE  = 
ORIGINATOR     = 

OBJECT_NAME    = STARLINK-35569
OBJECT_ID      = 2025-262R
CENTER_NAME    = EARTH
REF_FRAME      = TEME
TIME_SYSTEM    = UTC
MEAN_ELEMENT_THEORY = SGP/SGP4

EPOCH          = 2025-12-09T18:34:20.972640
MEAN_MOTION    = 15.50616852
ECCENTRICITY   = .0001386
INCLINATION    = 43.0004
RA_OF_ASC_NODE = 88.4074
ARG_OF_PERICENTER = 276.4784
MEAN_ANOMALY   = 83.5918

EPHEMERIS_TYPE = 0
CLASSIFICATION_TYPE = U
NORAD_CAT_ID   = 66471
ELEMENT_SET_NO = 999
REV_AT_EPOCH   = 510
BSTAR          = .22405E-2
MEAN_MOTION_DOT = .13354E-2
MEAN_MOTION_DDOT = 0

CCSDS_OMM_VERS = 2.0
CREATION_DATE  = 
ORIGINATOR     = 

OBJECT_NAME    = STARLINK-35567
OBJECT_ID      = 2025-262S
CENTER_NAME    = EARTH
REF_FRAME      = TEME
TIME_SYSTEM    = UTC
MEAN_ELEMENT_THEORY = SGP/SGP4

EPOCH          = 2025-12-09T18:33:21.417120
MEAN_MOTION    = 15.50631754
ECCENTRICITY   = .0001643
INCLINATION    = 43.0000
RA_OF_ASC_NODE = 88.4016
ARG_OF_PERICENTER = 273.0310
MEAN_ANOMALY   = 87.0362

EPHEMERIS_TYPE = 0
CLASSIFICATION_TYPE = U
NORAD_CAT_ID   = 66472
ELEMENT_SET_NO = 999
REV_AT_EPOCH   = 510
BSTAR          = .24348E-2
MEAN_MOTION_DOT = .145454E-2
MEAN_MOTION_DDOT = 0

CCSDS_OMM_VERS = 2.0
CREATION_DATE  = 
ORIGINATOR     = 

OBJECT_NAME    = STARLINK-35568
OBJECT_ID      = 2025-262T
CENTER_NAME    = EARTH
REF_FRAME      = TEME
TIME_SYSTEM    = UTC
MEAN_ELEMENT_THEORY = SGP/SGP4

EPOCH          = 2025-12-09T18:32:51.863136
MEAN_MOTION    = 15.50626497
ECCENTRICITY   = .0001547
INCLINATION    = 43.0003
RA_OF_ASC_NODE = 88.3990
ARG_OF_PERICENTER = 269.7405
MEAN_ANOMALY   = 90.3278

EPHEMERIS_TYPE = 0
CLASSIFICATION_TYPE = U
NORAD_CAT_ID   = 66473
ELEMENT_SET_NO = 999
REV_AT_EPOCH   = 510
BSTAR          = .23372E-2
MEAN_MOTION_DOT = .139474E-2
MEAN_MOTION_DDOT = 0

CCSDS_OMM_VERS = 2.0
CREATION_DATE  = 
ORIGINATOR     = 

OBJECT_NAME    = STARLINK-35620
OBJECT_ID      = 2025-262U
CENTER_NAME    = EARTH
REF_FRAME      = TEME
TIME_SYSTEM    = UTC
MEAN_ELEMENT_THEORY = SGP/SGP4

EPOCH          = 2025-12-09T18:32:22.335072
MEAN_MOTION    = 15.50612427
ECCENTRICITY   = .0001343
INCLINATION    = 43.0002
RA_OF_ASC_NODE = 88.3957
ARG_OF_PERICENTER = 262.9820
MEAN_ANOMALY   = 97.0887

EPHEMERIS_TYPE = 0
CLASSIFICATION_TYPE = U
NORAD_CAT_ID   = 66474
ELEMENT_SET_NO = 999
REV_AT_EPOCH   = 510
BSTAR          = .21552E-2
MEAN_MOTION_DOT = .12834E-2
MEAN_MOTION_DDOT = 0

