STARLINK-35463          
1 66463U 25262H   25343.83335647 -.02026060  00000+0 -48149-1 0  9992
2 66463  43.0004  88.1279 0001239 273.2705  32.5320 15.44379630  5174
STARLINK-35435          
1 66464U 25262J   25343.83335647 -.01990405  00000+0 -49407-1 0  9993
2 66464  42.9999  88.1504 0001377 278.3728  18.2069 15.43041911  5179
STARLINK-35448          
1 66465U 25262K   25343.83335647 -.02064144  00000+0 -44791-1 0  9998
2 66465  43.0005  88.0927 0001612 273.5218  46.4593 15.47062310  5176
STARLINK-35388          
1 66466U 25262L   25343.71067036 -.00255830  00000+0 -46698-2 0  9991
2 66466  43.0010  88.7937 0002771 285.4527  74.6026 15.49524620  5097
STARLINK-35682          
1 66467U 25262M   25343.83335647 -.02062227  00000+0 -46871-1 0  9991
2 66467  43.0005  88.1077 0001659 279.9345  33.6645 15.45730090  5178
STARLINK-35331          
1 66468U 25262N   25343.77458179 -.00126691  00000+0 -22109-2 0  9994
2 66468  43.0010  88.4141 0001050 308.1089  51.9676 15.50297909  5108
STARLINK-35451          
1 66469U 25262P   25343.77350966  .00108163  00000+0  18220-2 0  9991
2 66469  43.0007  88.4040 0001521 271.2414  88.8272 15.50611570  5103
STARLINK-35655          
1 66470U 25262Q   25343.77419661  .00140366  00000+0  23527-2 0  9998
2 66470  43.0002  88.4105 0001461 271.1122  88.9571 15.50615897  5109
STARLINK-35569          
1 66471U 25262R   25343.77385385  .00133540  00000+0  22405-2 0  9994
2 66471  43.0004  88.4074 0001386 276.4784  83.5918 15.50616852  5103
STARLINK-35567          
1 66472U 25262S   25343.77316455  .00145454  00000+0  24348-2 0  9992
2 66472  43.0000  88.4016 0001643 273.0310  87.0362 15.50631754  5100
STARLINK-35568          
1 66473U 25262T   25343.77282249  .00139474  00000+0  23372-2 0  9997
2 66473  43.0003  88.3990 0001547 269.7405  90.3278 15.50626497  5105
STARLINK-35620          
1 66474U 25262U   25343.77248073  .00128340  00000+0  21552-2 0  9993
2 66474  43.0002  88.3957 0001343 262.9820  97.0887 15.50612427  5106
